{
  "type": "FeatureCollection",
  "features": [
    {
      "type": "Feature",
      "properties": {
        "norad_id": 40010,
        "name": "KAZEOSAT 2",
        "group": "resource",
        "lat": 12.42759792291497,
        "lon": -159.99327239957967,
        "alt_km": 619.7095678361557,
        "timestamp": "2025-12-23T22:42:32.635145+00:00",
        "meta_object_name": "KAZEOSAT 2",
        "meta_object_id": "2014-033A",
        "meta_epoch": "2025-12-23T06:28:59.136096",
        "meta_mean_motion": 14.85185223,
        "meta_eccentricity": 0.00085611,
        "meta_inclination": 97.5495,
        "meta_ra_of_asc_node": 201.0406,
        "meta_arg_of_pericenter": 169.9313,
        "meta_mean_anomaly": 190.2076,
        "meta_ephemeris_type": 0,
        "meta_classification_type": "U",
        "meta_norad_cat_id": 40010,
        "meta_element_set_no": 999,
        "meta_rev_at_epoch": 62284,
        "meta_bstar": 0.0001369791,
        "meta_mean_motion_dot": 1.124e-05,
        "meta_mean_motion_ddot": 0,
        "tle_line1": "1 40010U 14033A   25357.27012889  .00001124  00000+0  13698-3 0  9992",
        "tle_line2": "2 40010  97.5495 201.0406 0008561 169.9313 190.2076 14.85185223622847"
      },
      "geometry": {
        "type": "Point",
        "coordinates": [
          -159.99327239957967,
          12.42759792291497
        ]
      }
    },
    {
      "type": "Feature",
      "properties": {
        "norad_id": 40011,
        "name": "HODOYOSHI-4",
        "group": "resource",
        "lat": -14.234805556445854,
        "lon": 4.351280470358559,
        "alt_km": 596.0608798391522,
        "timestamp": "2025-12-23T22:42:32.635155+00:00",
        "meta_object_name": "HODOYOSHI-4",
        "meta_object_id": "2014-033B",
        "meta_epoch": "2025-12-23T07:18:34.904160",
        "meta_mean_motion": 14.87518814,
        "meta_eccentricity": 0.0023978,
        "meta_inclination": 97.5408,
        "meta_ra_of_asc_node": 185.6673,
        "meta_arg_of_pericenter": 165.0119,
        "meta_mean_anomaly": 195.1814,
        "meta_ephemeris_type": 0,
        "meta_classification_type": "U",
        "meta_norad_cat_id": 40011,
        "meta_element_set_no": 999,
        "meta_rev_at_epoch": 62265,
        "meta_bstar": 0.00020791647,
        "meta_mean_motion_dot": 1.843e-05,
        "meta_mean_motion_ddot": 0,
        "tle_line1": "1 40011U 14033B   25357.30457065  .00001843  00000+0  20792-3 0  9997",
        "tle_line2": "2 40011  97.5408 185.6673 0023978 165.0119 195.1814 14.87518814622656"
      },
      "geometry": {
        "type": "Point",
        "coordinates": [
          4.351280470358559,
          -14.234805556445854
        ]
      }
    },
    {
      "type": "Feature",
      "properties": {
        "norad_id": 40013,
        "name": "DEIMOS-2",
        "group": "resource",
        "lat": -32.55313747141796,
        "lon": 48.48303764542229,
        "alt_km": 595.0994452191817,
        "timestamp": "2025-12-23T22:42:32.635165+00:00",
        "meta_object_name": "DEIMOS-2",
        "meta_object_id": "2014-033D",
        "meta_epoch": "2025-12-23T05:40:27.410304",
        "meta_mean_motion": 14.93016219,
        "meta_eccentricity": 0.00014741,
        "meta_inclination": 97.6063,
        "meta_ra_of_asc_node": 232.6905,
        "meta_arg_of_pericenter": 101.6553,
        "meta_mean_anomaly": 258.4833,
        "meta_ephemeris_type": 0,
        "meta_classification_type": "U",
        "meta_norad_cat_id": 40013,
        "meta_element_set_no": 999,
        "meta_rev_at_epoch": 61146,
        "meta_bstar": 0.00016841381,
        "meta_mean_motion_dot": 1.697e-05,
        "meta_mean_motion_ddot": 0,
        "tle_line1": "1 40013U 14033D   25357.23642836  .00001697  00000+0  16841-3 0  9990",
        "tle_line2": "2 40013  97.6063 232.6905 0001474 101.6553 258.4833 14.93016219611462"
      },
      "geometry": {
        "type": "Point",
        "coordinates": [
          48.48303764542229,
          -32.55313747141796
        ]
      }
    },
    {
      "type": "Feature",
      "properties": {
        "norad_id": 40015,
        "name": "HODOYOSHI-3",
        "group": "resource",
        "lat": 11.639623827416658,
        "lon": 161.71384037748302,
        "alt_km": 637.0145113125755,
        "timestamp": "2025-12-23T22:42:32.635175+00:00",
        "meta_object_name": "HODOYOSHI-3",
        "meta_object_id": "2014-033F",
        "meta_epoch": "2025-12-23T04:51:55.144512",
        "meta_mean_motion": 14.84840602,
        "meta_eccentricity": 0.00324001,
        "meta_inclination": 97.6205,
        "meta_ra_of_asc_node": 162.5832,
        "meta_arg_of_pericenter": 212.3605,
        "meta_mean_anomaly": 147.5624,
        "meta_ephemeris_type": 0,
        "meta_classification_type": "U",
        "meta_norad_cat_id": 40015,
        "meta_element_set_no": 999,
        "meta_rev_at_epoch": 62150,
        "meta_bstar": 0.00018363996,
        "meta_mean_motion_dot": 1.522e-05,
        "meta_mean_motion_ddot": 0,
        "tle_line1": "1 40015U 14033F   25357.20272158  .00001522  00000+0  18364-3 0  9994",
        "tle_line2": "2 40015  97.6205 162.5832 0032400 212.3605 147.5624 14.84840602621506"
      },
      "geometry": {
        "type": "Point",
        "coordinates": [
          161.71384037748302,
          11.639623827416658
        ]
      }
    },
    {
      "type": "Feature",
      "properties": {
        "norad_id": 40053,
        "name": "SPOT 7",
        "group": "resource",
        "lat": -24.51086927542324,
        "lon": -123.95496265084726,
        "alt_km": 696.9358799335523,
        "timestamp": "2025-12-23T22:42:32.635186+00:00",
        "meta_object_name": "SPOT 7",
        "meta_object_id": "2014-034A",
        "meta_epoch": "2025-12-23T06:58:45.820704",
        "meta_mean_motion": 14.60746445,
        "meta_eccentricity": 0.00015507,
        "meta_inclination": 98.0893,
        "meta_ra_of_asc_node": 59.123,
        "meta_arg_of_pericenter": 82.5656,
        "meta_mean_anomaly": 277.5721,
        "meta_ephemeris_type": 0,
        "meta_classification_type": "U",
        "meta_norad_cat_id": 40053,
        "meta_element_set_no": 999,
        "meta_rev_at_epoch": 61145,
        "meta_bstar": 0.00012970037,
        "meta_mean_motion_dot": 5.87e-06,
        "meta_mean_motion_ddot": 0,
        "tle_line1": "1 40053U 14034A   25357.29080811  .00000587  00000+0  12970-3 0  9996",
        "tle_line2": "2 40053  98.0893  59.1230 0001550  82.5656 277.5721 14.60746445611453"
      },
      "geometry": {
        "type": "Point",
        "coordinates": [
          -123.95496265084726,
          -24.51086927542324
        ]
      }
    },
    {
      "type": "Feature",
      "properties": {
        "norad_id": 40072,
        "name": "SKYSAT-B",
        "group": "resource",
        "lat": 47.45672404600047,
        "lon": 131.46846346298094,
        "alt_km": 597.3843436537209,
        "timestamp": "2025-12-23T22:42:32.635196+00:00",
        "meta_object_name": "SKYSAT-B",
        "meta_object_id": "2014-037D",
        "meta_epoch": "2025-12-22T20:17:08.751552",
        "meta_mean_motion": 14.87361186,
        "meta_eccentricity": 0.00067533,
        "meta_inclination": 98.3626,
        "meta_ra_of_asc_node": 301.0856,
        "meta_arg_of_pericenter": 121.7869,
        "meta_mean_anomaly": 238.4005,
        "meta_ephemeris_type": 0,
        "meta_classification_type": "U",
        "meta_norad_cat_id": 40072,
        "meta_element_set_no": 999,
        "meta_rev_at_epoch": 61974,
        "meta_bstar": 0.0001702773,
        "meta_mean_motion_dot": 1.478e-05,
        "meta_mean_motion_ddot": 0,
        "tle_line1": "1 40072U 14037D   25356.84524018  .00001478  00000+0  17028-3 0  9991",
        "tle_line2": "2 40072  98.3626 301.0856 0006753 121.7869 238.4005 14.87361186619741"
      },
      "geometry": {
        "type": "Point",
        "coordinates": [
          131.46846346298094,
          47.45672404600047
        ]
      }
    },
    {
      "type": "Feature",
      "properties": {
        "norad_id": 40115,
        "name": "WORLDVIEW-3 (WV-3)",
        "group": "resource",
        "lat": -68.72845703345008,
        "lon": 90.91933563853841,
        "alt_km": 623.1634757485735,
        "timestamp": "2025-12-23T22:42:32.635206+00:00",
        "meta_object_name": "WORLDVIEW-3 (WV-3)",
        "meta_object_id": "2014-048A",
        "meta_epoch": "2025-12-23T01:59:49.992864",
        "meta_mean_motion": 14.84670573,
        "meta_eccentricity": 0.00019351,
        "meta_inclination": 97.8766,
        "meta_ra_of_asc_node": 69.2366,
        "meta_arg_of_pericenter": 132.1702,
        "meta_mean_anomaly": 227.9678,
        "meta_ephemeris_type": 0,
        "meta_classification_type": "U",
        "meta_norad_cat_id": 40115,
        "meta_element_set_no": 999,
        "meta_rev_at_epoch": 61577,
        "meta_bstar": 0.00012533482,
        "meta_mean_motion_dot": 1.007e-05,
        "meta_mean_motion_ddot": 0,
        "tle_line1": "1 40115U 14048A   25357.08321751  .00001007  00000+0  12533-3 0  9991",
        "tle_line2": "2 40115  97.8766  69.2366 0001935 132.1702 227.9678 14.84670573615774"
      },
      "geometry": {
        "type": "Point",
        "coordinates": [
          90.91933563853841,
          -68.72845703345008
        ]
      }
    }
  ]
}